#dP2024  5 23 12  0  0.00000000      96 __u+U IGS20 EXT  IAC
## 2315 388800.00000000   900.00000000 60453 0.5000000000000
+   53   G02G03G04G05G06G07G08G09G10G11G12G13G14G15G16G17G18
+        G19G20G21G22G23G24G26G27G28G29G30G31G32R01R02R03R04
+        R05R07R08R09R11R12R13R14R15R16R17R18R19R20R21R22R24
+        R25R26  0  0  0  0  0  0  0  0  0  0  0  0  0  0  0
+          0  0  0  0  0  0  0  0  0  0  0  0  0  0  0  0  0
++         7  7  7  7  7  8  7  8  7  7  7  9  6  6  9  7  7
++         7  7  8  6  7  8  7  9  8  9  9  7  8  8  9  7  8
++         9  8  8  9  8  8  9  8  8  8  8  7  7 10  7  6  9
++         8  0  0  0  0  0  0  0  0  0  0  0  0  0  0  0  0
++         0  0  0  0  0  0  0  0  0  0  0  0  0  0  0  0  0
%c M  cc GPS ccc cccc cccc cccc cccc ccccc ccccc ccccc ccccc
%c cc cc ccc ccc cccc cccc cccc cccc ccccc ccccc ccccc ccccc
%f  0.0000000  0.000000000  0.00000000000  0.000000000000000
%f  0.0000000  0.000000000  0.00000000000  0.000000000000000
%i    0    0    0    0      0      0      0      0         0
%i    0    0    0    0      0      0      0      0         0
/* IAC                                ULTRA-RAPID PREDICTION
/* S/V CLOCKS ARE ALIGNED TO GNSS TIME                      
/* G:C1WC2W R:C1PC2P E:C1XC5X C:C2IC6I J:C1CC2S             
/* PCV:IGS20_2290 OL/AL:FES2004  NONE     YN ORB:CoN CLK:CoN
*  2024 05 23 22  0  0.00000000
PG02 -10207.783498  19644.922975 -13979.641491   -430.857071
PG03   2998.909964  16981.582081 -20392.638252    378.478068
PG04  -1438.192046  26367.849860  -2048.129133    367.649615
PG05  12868.635120  -9726.867045  20938.540551   -173.770543
PG06  22310.667381  -2560.526652 -14208.323373    257.542962
PG07   9419.221166  12607.096818  21926.176371   -135.230794
PG08  -7026.033317  22335.222143  12011.467672    193.922941
PG09   8165.881670  23295.693894   9651.151448    207.497340
PG10 -24323.257428 -10547.074190  -3250.939686    -28.464690
PG11  23735.820066 -11681.627825  -2004.502022   -669.306612
PG12    298.472351 -16877.807781 -20800.639682   -507.946960
PG13  13198.247611 -15440.848565  16778.731174    652.747950
PG14  23177.308007  13207.741934    141.180004    408.041851
PG15   4162.603488 -23277.941786  11399.798348    162.276720
PG16 -16738.860471   5470.438501  19683.096228   -283.765319
PG17  12749.270481  12725.332734 -19045.588432    703.518404
PG18  -9521.227875 -11639.572795  21913.858588   -615.027279
PG19  14922.447090   3102.586945 -21949.978082    486.260854
PG20  21238.149890  -4494.672947  15265.856959    375.505647
PG21 -14233.735323  19314.377701  -9743.642119    119.850725
PG22  23484.289209   9018.909266  -7623.598191    -17.720469
PG23 -19653.292130 -16003.611401   8299.300451    232.805639
PG24  10833.496193 -20468.298019 -13046.956117   -472.231673
PG26 -24544.594569  -2414.370814  10173.020794    148.376290
PG27 -12845.312406  12501.043022  19166.544878    -25.345607
PG28 -21234.793030    814.954987 -15942.717093   -256.938303
PG29  -4098.089704 -25063.350945   7514.918260   -597.266495
PG30  18784.967393   4403.866561  18509.570099   -385.735410
PG31 -24388.732149   8724.750203  -6962.816878   -227.725285
PG32 -14351.935911  -9795.488278 -19930.709742   -617.871968
PR01  14231.960297   8790.469903  19269.411352     86.258657
PR02   7878.985543  -8561.714386  22755.346961    -23.046992
PR03  -2656.813275 -21685.257449  13263.647656    100.721253
PR04 -11211.008285 -22691.946955  -3181.690009    237.773052
PR05 -13887.901132 -11630.646784 -17952.751089    131.948246
PR07   3164.464212  21978.854972 -12467.263233     83.041504
PR08  11562.487016  22445.142818   3588.434368     -4.092856
PR09 -20412.144596   5447.333862  14252.466088    188.239485
PR11  12897.285606  10526.810075  19346.185311     23.740056
PR12  25004.446224   4094.166810   2927.280741     40.475910
PR13  22098.402892  -3764.921297 -12181.496469    -47.653455
PR14   4445.142579 -10652.808956 -22733.759799     26.495142
PR15 -14323.181442 -10417.233019 -18331.448043     79.519270
PR16 -24971.056440  -4039.296744  -3116.528518     25.840064
PR17  10318.622060 -21188.420326   9711.438226     89.447589
PR18  -1409.566570 -13987.848095  21304.973776    143.521468
PR19 -11739.266710  -1586.276675  22583.690314   -277.709304
PR20 -18011.998901  15722.898204   8833.125330   -113.304770
PR21 -10665.010593  21130.039518  -9550.029173   -103.290234
PR22   2281.790730  13403.231030 -21557.993749    109.779750
PR24  17397.138868 -16737.316268  -8205.970103    -57.012277
PR25 -10909.894357  20841.420986  -9887.383105    -37.960402
PR26  11215.133782  22818.147539   2248.254780     -7.767166
*  2024 05 23 22 15  0.00000000
PG02 -11554.398673  20436.600270 -11658.319785   -430.850929
PG03    870.397940  15987.441221 -21371.220721    378.495334
PG04  -1702.908845  25976.258988  -4882.761150    367.657092
PG05  15013.442728  -8713.200522  19949.621934   -173.771822
PG06  20910.705570  -1508.441532 -16312.971699    257.524954
PG07   7411.385658  13922.321238  21858.443766   -135.238076
PG08  -7428.884499  20831.115593  14278.832499    193.940732
PG09   8007.209277  24279.723792   7017.223789    207.510127
PG10 -24455.490725 -10794.611620   -377.737850    -28.471027
PG11  23522.815135 -11271.147078  -4838.442273   -669.314706
PG12   2372.145045 -15743.502512 -21549.072440   -507.949987
PG13  13194.722556 -13375.594325  18470.615715    652.750581
PG14  22895.079288  13375.742230   2948.201115    408.050177
PG15   4775.494394 -21859.390989  13664.735815    162.280411
PG16 -18589.815557   4228.888765  18343.713662   -283.756196
PG17  12621.207167  14899.264967 -17512.212930    703.514775
PG18  -7413.393757 -12990.256721  21952.004947   -615.032249
PG19  14814.036103   5545.972891 -21569.552269    486.265637
PG20  22736.464402  -3839.765460  13114.258572    375.504398
PG21 -15243.124253  19726.421051  -7059.571080    119.848671
PG22  24001.420115   9650.241442  -4871.407168    -17.725144
PG23 -18594.898450 -15703.659960  10893.097017    232.814031
PG24  12041.327570 -21077.834709 -10697.813147   -472.234592
PG26 -25400.907879  -3058.392532   7652.453342    148.371069
PG27 -13143.260649  10188.850360  20320.089130    -25.347128
PG28 -19764.379537   -439.088867 -17747.397925   -256.953217
PG29  -3866.093141 -25770.727235   4747.203514   -597.265070
PG30  17060.193398   5714.973620  19763.890422   -385.730047
PG31 -23740.526921   8047.553718  -9570.385230   -227.725178
PG32 -14414.934197 -12039.892213 -18645.268095   -617.871459
PR01  15337.158136  10759.698338  17325.465564     86.259650
PR02   9042.374483  -5992.583915  23136.890058    -23.047154
PR03  -2010.323525 -20020.936529  15763.033461    100.721757
PR04 -11456.505317 -22796.866693     36.859960    237.774599
PR05 -14869.505486 -13472.037035 -15747.139885    131.948782
PR07   2547.718227  20381.364092 -15049.763099     83.042267
PR08  11808.531845  22590.909122    379.339809     -4.093403
PR09 -22008.796826   5443.388760  11625.554377    188.241384
PR11  10427.816195  10287.028746  20900.621971     23.738942
PR12  24463.856827   3922.740480   6071.393369     40.476279
PR13  23429.936476  -3797.624256  -9352.097630    -47.653820
PR14   7208.618880 -10494.272431 -22092.441806     26.495110
PR15 -11960.654517 -10169.813414 -20079.403013     79.518885
PR16 -24401.485567  -3850.552223  -6266.927794     25.840300
PR17  10755.533635 -22119.751651   6686.850535     89.450716
PR18    -10.701613 -16106.025388  19806.402040    143.523139
PR19  -9991.089121  -3809.935941  23151.536005   -277.710529
PR20 -17081.584878  14832.306232  11745.684996   -113.305293
PR21 -11084.021507  22048.174544  -6514.874479   -103.293088
PR22    771.361288  15499.781294 -20218.334585    109.776974
PR24  16598.823198 -15837.601990 -11124.186678    -57.013699
PR25 -11426.243653  21749.571457  -6898.094955    -37.962912
PR26  11396.744276  22815.083567   -968.282387     -7.766508
EOF
